*******************************************************************************
 Revised: Sep 08, 2007             Bianca  / (Uranus)                       708

 SATELLITE PHYSICAL PROPERTIES:
  Radius (km)           = 22 +- 3           Density (g cm^-3)   =
  Mass (10^20 kg )      =                   Geometric Albedo    =   0.07 
                                            V(1,0)              = +10.3

 SATELLITE ORBITAL DATA:
  Semi-major axis, a (km) =  59.165 (10^3)  Orbital period      =  0.434577 d
  Eccentricity, e         =   0.001         Rotational period   = 
  Inclination, i  (deg)   =   0.2
*******************************************************************************
 
 
*******************************************************************************
Ephemeris / WWW_USER Sun Nov 12 08:37:53 2017 Pasadena, USA      / Horizons    
*******************************************************************************
Target body name: Bianca (708)                    {source: ura086x}
Center body name: Solar System Barycenter (0)     {source: DE431mx}
Center-site name: BODY CENTER
*******************************************************************************
Start time      : A.D. 2017-Jul-10 00:00:00.0000 TDB
Stop  time      : A.D. 2020-Aug-13 00:00:00.0000 TDB
Step-size       : 1440 minutes
*******************************************************************************
Center geodetic : 0.00000000,0.00000000,0.0000000 {E-lon(deg),Lat(deg),Alt(km)}
Center cylindric: 0.00000000,0.00000000,0.0000000 {E-lon(deg),Dxy(km),Dz(km)}
Center radii    : (undefined)                                                  
Output units    : KM-S                                                         
Output type     : GEOMETRIC cartesian states
Output format   : 3 (position, velocity, LT, range, range-rate)
Reference frame : ICRF/J2000.0                                                 
Coordinate systm: Ecliptic and Mean Equinox of Reference Epoch                 
*******************************************************************************
            JDTDB,            Calendar Date (TDB),                      X,                      Y,                      Z,                     VX,                     VY,                     VZ,                     LT,                     RG,                     RR,
**************************************************************************************************************************************************************************************************************************************************************************
$$SOE
2458511.500000000, A.D. 2019-Jan-28 00:00:00.0000,  2.537059213051397E+09,  1.546318257138602E+09, -2.709228273892057E+07,  2.305007087664078E+00,  5.308074532129127E+00,  8.007470816877660E+00,  9.911122549682579E+03,  2.971279790708567E+09,  4.657579339068542E+00,
2458512.500000000, A.D. 2019-Jan-29 00:00:00.0000,  2.536842286492550E+09,  1.546772447084595E+09, -2.708658853751075E+07,  1.819772268278264E+00,  3.176301512091656E+00, -7.888456295224010E+00,  9.911293119256154E+03,  2.971330926180289E+09,  3.279056596661616E+00,
2458513.500000000, A.D. 2019-Jan-30 00:00:00.0000,  2.536499279318320E+09,  1.547241823672472E+09, -2.717102971102703E+07, -1.291727766203661E+01,  7.151218240017619E+00, -2.860198639864181E+00,  9.911134070690816E+03,  2.971283244619946E+09, -7.277087105806462E+00,
2458514.500000000, A.D. 2019-Jan-31 00:00:00.0000,  2.536115219698155E+09,  1.547740959206435E+09, -2.710817687638092E+07, -3.124529782955818E+00,  6.770259418981595E+00,  9.870842329950259E+00,  9.910905735893613E+03,  2.971214791569845E+09,  7.696716295792034E-01,
2458515.500000000, A.D. 2019-Feb-01 00:00:00.0000,  2.535882893782402E+09,  1.548205957566298E+09, -2.704818235299230E+07,  5.416828846709892E+00,  3.037521695482299E+00, -3.187186901319212E+00,  9.911050559527350E+03,  2.971258208602979E+09,  6.234853758237128E+00,
2458516.500000000, A.D. 2019-Feb-02 00:00:00.0000,  2.535595703017281E+09,  1.548662591315711E+09, -2.713358027136505E+07, -9.756417579950842E+00,  5.769058496295923E+00, -7.690347057678023E+00,  9.911029386530026E+03,  2.971251861098068E+09, -5.248743456326318E+00,
2458517.500000000, A.D. 2019-Feb-03 00:00:00.0000,  2.535191089389330E+09,  1.549158491844357E+09, -2.712444726593900E+07, -8.730370519171785E+00,  7.778337160467284E+00,  8.223349744063194E+00,  9.910739745075265E+03,  2.971165028774407E+09, -3.468785543507401E+00,
2458518.500000000, A.D. 2019-Feb-04 00:00:00.0000,  2.534915252790849E+09,  1.549637794554883E+09, -2.702957912890661E+07,  5.785899750259370E+00,  3.776258314166634E+00,  2.673070148874717E+00,  9.910785551677283E+03,  2.971178761248219E+09,  6.881560422837077E+00,
2458519.500000000, A.D. 2019-Feb-05 00:00:00.0000,  2.534675292876694E+09,  1.550088170193553E+09, -2.708329071481693E+07, -4.387909742741406E+00,  4.289469487953935E+00, -9.732229830892386E+00,  9.910887965800421E+03,  2.971209464229928E+09, -1.416692341444685E+00,
2458520.500000000, A.D. 2019-Feb-06 00:00:00.0000,  2.534283668404131E+09,  1.550573234136653E+09, -2.712910609023917E+07, -1.250340034648426E+01,  7.969308606880872E+00,  3.646318308315140E+00,  9.910619296641347E+03,  2.971128919242341E+09, -6.539294847693411E+00,
2458521.500000000, A.D. 2019-Feb-07 00:00:00.0000,  2.533951616952652E+09,  1.551065180157295E+09, -2.703124745250165E+07,  2.797587432209824E+00,  5.127796086554432E+00,  7.600992057215501E+00,  9.910528147548213E+03,  2.971101593431665E+09,  4.993781731945370E+00,
2458522.500000000, A.D. 2019-Feb-08 00:00:00.0000,  2.533733291469689E+09,  1.551517955959631E+09, -2.703197370597172E+07,  1.254172746477528E+00,  3.242572753361672E+00, -8.257871924628807E+00,  9.910695657324492E+03,  2.971151811599235E+09,  2.837914789532594E+00,
2458523.500000000, A.D. 2019-Feb-09 00:00:00.0000,  2.533383448233451E+09,  1.551988411158025E+09, -2.711415683772969E+07, -1.308260867913150E+01,  7.271863431037989E+00, -2.220346001046473E+00,  9.910522659342405E+03,  2.971099948108956E+09, -7.336412132179974E+00,
2458524.500000000, A.D. 2019-Feb-10 00:00:00.0000,  2.533002551467155E+09,  1.552486745029074E+09, -2.704626970206177E+07, -2.484027637721081E+00,  6.609983287726255E+00,  9.837135786713553E+00,  9.910305762434153E+03,  2.971034924051699E+09,  1.246638077940203E+00,
2458525.500000000, A.D. 2019-Feb-11 00:00:00.0000,  2.532772535129852E+09,  1.552949632981182E+09, -2.699167098577857E+07,  5.148803297335318E+00,  3.000334884236644E+00, -3.805450863615966E+00,  9.910456939852917E+03,  2.971080245901664E+09,  5.992040113959734E+00,
2458526.500000000, A.D. 2019-Feb-12 00:00:00.0000,  2.532478193804113E+09,  1.553406862466005E+09, -2.707866459478295E+07, -1.025706250155205E+01,  5.935001261904291E+00, -7.266132895950808E+00,  9.910419951735208E+03,  2.971069157142940E+09, -5.573602422978754E+00,
2458527.500000000, A.D. 2019-Feb-13 00:00:00.0000,  2.532073252760364E+09,  1.553902957183225E+09, -2.706309021596420E+07, -8.175814544878319E+00,  7.692851519873824E+00,  8.574480873565825E+00,  9.910133562942541E+03,  2.970983299942842E+09, -3.022524075554806E+00,
2458528.500000000, A.D. 2019-Feb-14 00:00:00.0000,  2.531802251157809E+09,  1.554380000238329E+09, -2.697064931941116E+07,  5.907585018661027E+00,  3.646481792371601E+00,  2.027732667980005E+00,  9.910192771283440E+03,  2.971001050156894E+09,  6.923648226465583E+00,
2458529.500000000, A.D. 2019-Feb-15 00:00:00.0000,  2.531557051154779E+09,  1.554830066181934E+09, -2.702923495521009E+07, -5.048359702396361E+00,  4.439084065922818E+00, -9.675795211693583E+00,  9.910283138227614E+03,  2.971028141485210E+09, -1.890476838229506E+00,
2458530.500000000, A.D. 2019-Feb-16 00:00:00.0000,  2.531161376215552E+09,  1.555316041866288E+09, -2.706951548559928E+07, -1.223770678337683E+01,  7.986687588282397E+00,  4.256437997624626E+00,  9.910008316415891E+03,  2.970945751978762E+09, -6.283859985649496E+00,
2458531.500000000, A.D. 2019-Feb-17 00:00:00.0000,  2.530834595621409E+09,  1.555806180038266E+09, -2.697022952237236E+07,  3.261325046648754E+00,  4.949367784411433E+00,  7.160280185242749E+00,  9.909932728022788E+03,  2.970923091148597E+09,  5.305090828103860E+00,
2458532.500000000, A.D. 2019-Feb-18 00:00:00.0000,  2.530614491516434E+09,  1.556257641450553E+09, -2.697733716468716E+07,  6.670547968928759E-01,  3.320018663606546E+00, -8.589382482892999E+00,  9.910096265137516E+03,  2.970972118342196E+09,  2.385273686742164E+00,
2458533.500000000, A.D. 2019-Feb-19 00:00:00.0000,  2.530258016113292E+09,  1.556729182591571E+09, -2.705688266773510E+07, -1.320462177990235E+01,  7.383323589133104E+00, -1.570209073298745E+00,  9.909909956923972E+03,  2.970916264544910E+09, -7.362974214728537E+00,
2458534.500000000, A.D. 2019-Feb-20 00:00:00.0000,  2.529880598947025E+09,  1.557226588258771E+09, -2.698426413139451E+07, -1.848752236067652E+00,  6.444115388247154E+00,  9.758580673323054E+00,  9.909705157792752E+03,  2.970854867309967E+09,  1.714825366839592E+00,
2458535.500000000, A.D. 2019-Feb-21 00:00:00.0000,  2.529652524297138E+09,  1.557687420424016E+09, -2.693529245028400E+07,  4.841046517359468E+00,  2.975687854113072E+00, -4.406211517234881E+00,  9.909861707366172E+03,  2.970901799691381E+09,  5.722181621054999E+00,
2458536.500000000, A.D. 2019-Feb-22 00:00:00.0000,  2.529350966205413E+09,  1.558145322670851E+09, -2.702347817764306E+07, -1.072727851424219E+01,  6.098426135451151E+00, -6.808672960140496E+00,  9.909808893093166E+03,  2.970885966370659E+09, -5.872599718898928E+00,
2458537.500000000, A.D. 2019-Feb-23 00:00:00.0000,  2.528946108990914E+09,  1.558641495652780E+09, -2.700154045233834E+07, -7.600873082873775E+00,  7.596311293469550E+00,  8.886448521735600E+00,  9.909526730939853E+03,  2.970801376285163E+09, -2.565711821750396E+00,
